HAWK-7A                 
1 56191U 23054P   26068.68910991  .00007758  00000+0  30248-3 0  9997
2 56191  97.2827 318.5579 0004249  51.2619 308.8999 15.26207271161849
STARLINK-30447          
1 57874U 23144L   26068.55986978 -.00000085  00000+0  64981-5 0  9990
2 57874  42.9968 260.1413 0001542 274.2299  85.8376 15.26742466137916
